GSAT0101 (PRN E11)      
1 37846U 11060A   22110.17949553 -.00000085  00000+0  00000+0 0  9997
2 37846  56.9755  22.9204 0004213  11.8292 348.1989  1.70474901 65229
GSAT0102 (PRN E12)      
1 37847U 11060B   22110.39697903 -.00000086  00000+0  00000+0 0  9992
2 37847  56.9772  22.9139 0004808 345.4550 194.6356  1.70475235 65233
GSAT0103 (PRN E19)      
1 38857U 12055A   22111.39266712  .00000052  00000+0  00000+0 0  9992
2 38857  55.1196 143.2664 0005354 265.8279  94.1734  1.70473613 59130
GSAT0104 (PRN E20)      
1 38858U 12055B   22111.36288351  .00000052  00000+0  00000+0 0  9993
2 38858  55.1199 143.2687 0002931 264.0797  95.9495  1.70473889 59243
GSAT0201 (PRN E18)      
1 40128U 14050A   22110.53641556 -.00000074  00000+0  00000+0 0  9996
2 40128  50.3188 334.5890 1629895 121.9245 254.9803  1.85518807 50142
GSAT0202 (PRN E14)      
1 40129U 14050B   22110.79762155 -.00000073  00000+0  00000+0 0  9993
2 40129  50.3446 333.6375 1626937 122.7418 254.0061  1.85519393 52312
GSAT0203 (PRN E26)      
1 40544U 15017A   22110.54699075 -.00000087  00000+0  00000+0 0  9996
2 40544  56.7707  22.9512 0002766 292.5972  67.3915  1.70475456 43972
GSAT0204 (PRN E22)      
1 40545U 15017B   22110.79966084 -.00000088  00000+0  00000+0 0  9992
2 40545  56.7766  22.9568 0001879 278.6779  81.3186  1.70475337  6369
GSAT0205 (PRN E24)      
1 40889U 15045A   22110.56671211  .00000003  00000+0  00000+0 0  9990
2 40889  55.6636 263.5596 0005206  29.6595 330.3258  1.70473561 41123
GSAT0206 (PRN E30)      
1 40890U 15045B   22111.37408275  .00000002  00000+0  00000+0 0  9999
2 40890  55.6618 263.5334 0003237  26.5215 333.4539  1.70473508 41163
GSAT0209 (PRN E09)      
1 41174U 15079A   22111.54897164  .00000051  00000+0  00000+0 0  9994
2 41174  55.1361 142.9651 0005316 300.6793  59.3297  1.70474698 38902
GSAT0208 (PRN E08)      
1 41175U 15079B   22111.76841280  .00000051  00000+0  00000+0 0  9997
2 41175  55.1345 142.9579 0004582 299.1105  60.9041  1.70474709 39322
GSAT0211 (PRN E02)      
1 41549U 16030A   22111.30131445  .00000002  00000+0  00000+0 0  9991
2 41549  55.8077 263.4623 0003297 352.4506   7.5029  1.70475091 36791
GSAT0210 (PRN E01)      
1 41550U 16030B   22109.24764010  .00000004  00000+0  00000+0 0  9995
2 41550  55.8081 263.5201 0001768 319.1707  40.7664  1.70475229 36758
GSAT0207 (PRN E07)      
1 41859U 16069A   22109.49533394  .00000063  00000+0  00000+0 0  9990
2 41859  54.7952 143.2175 0005503 289.4864  70.5291  1.70473352 33493
GSAT0212 (PRN E03)      
1 41860U 16069B   22111.10847469  .00000053  00000+0  00000+0 0  9993
2 41860  54.7935 143.1704 0004008 305.5663  54.4601  1.70473369 33774
GSAT0213 (PRN E04)      
1 41861U 16069C   22110.30077458  .00000058  00000+0  00000+0 0  9993
2 41861  54.7956 143.1979 0005335 271.9801  88.0276  1.70473413 33621
GSAT0214 (PRN E05)      
1 41862U 16069D   22111.62099911  .00000050  00000+0  00000+0 0  9990
2 41862  54.7944 143.1558 0004436 275.0470  84.9636  1.70473456 33778
GSAT0215 (PRN E21)      
1 43055U 17079A   22110.93852090  .00000003  00000+0  00000+0 0  9994
2 43055  55.7832 263.3055 0001134 318.4395  41.5092  1.70474321 27105
GSAT0216 (PRN E25)      
1 43056U 17079B   22111.81737312  .00000000  00000+0  00000+0 0  9999
2 43056  55.7830 263.2812 0002731 295.6013  64.3305  1.70474476 27102
GSAT0217 (PRN E27)      
1 43057U 17079C   22110.27783996  .00000004  00000+0  00000+0 0  9992
2 43057  55.7815 263.3232 0002695 320.0069  39.9278  1.70474395 27091
GSAT0218 (PRN E31)      
1 43058U 17079D   22110.49785332  .00000004  00000+0  00000+0 0  9993
2 43058  55.7823 263.3147 0003049 288.1846  71.7377  1.70474381 27120
GSAT0221 (PRN E15)      
1 43564U 18060A   22109.80963382 -.00000084  00000+0  00000+0 0  9991
2 43564  57.1533  22.7724 0003924 305.8627  54.1194  1.70475276 23267
GSAT0222 (PRN E33)      
1 43565U 18060B   22110.61607599 -.00000087  00000+0  00000+0 0  9991
2 43565  57.1554  22.7512 0003889 316.6832  43.3047  1.70475221 23328
GSAT0219 (PRN E36)      
1 43566U 18060C   22110.83663822 -.00000088  00000+0  00000+0 0  9998
2 43566  57.1564  22.7467 0003617 320.1578  39.8340  1.70475307 23304
GSAT0220 (PRN E13)      
1 43567U 18060D   22111.05671374 -.00000089  00000+0  00000+0 0  9996
2 43567  57.1561  22.7413 0003488 315.0341  44.9558  1.70474998 23291
GSAT0223                
1 49809U 21116A   22111.02138774 -.00000088  00000+0  00000+0 0  9995
2 49809  57.1490  22.6407 0000131  25.8485  42.4264  1.70475148  2300
GSAT0224                
1 49810U 21116B   22110.87646125 -.00000088  00000+0  00000+0 0  9993
2 49810  57.1498  22.6425 0000842  30.7966  61.0210  1.70475115  2322
